#dP2021  7 15 18  0  0.00000000      96 __u+U ITR00 EXT  IAC
## 2166 410400.00000000   900.00000000 59410 0.7500000000000
+  115   C06C08C09C10C11C12C13C14C16C19C20C21C22C23C24C25C26
+        C27C28C29C30C32C33C34C35C36C37C38C39C40C41C42C43C44
+        C45C46E01E02E03E04E05E07E08E09E11E12E13E14E15E18E19
+        E21E24E25E26E27E30E31E33E36G01G02G03G04G05G06G07G08
+        G09G10G11G12G13G14G15G16G17G18G19G20G21G22G23G24G25
+        G26G27G28G29G30G31G32J01J02J03R01R02R03R04R05R07R08
+        R09R12R13R14R15R16R17R18R19R20R21R22R24  0  0  0  0
++         9 11 10  8  9 10  9  8 10  8  8  9  7  8  9  9  8
++         8  9  9  8  8  8  8  8  7  9  8 11 10 10  9 10  8
++         9  7  8  7  7  8  7  7  7  7  8  8  7  9  8 10  7
++         8  8  7  8  9  6  9  6  8  8  7  7  6  8  7  7  8
++         7  8  8  8  7  7  8  7  8  8  8  7  7  8  9  7  8
++         7  8  9  8  8  8  7 11  9 10  9  8  8  7  8  9  9
++        10  8  8  8  9  7  9  9  7  8 10  8  9  0  0  0  0
%c M  cc GPS ccc cccc cccc cccc cccc ccccc ccccc ccccc ccccc
%c cc cc ccc ccc cccc cccc cccc cccc ccccc ccccc ccccc ccccc
%f  0.0000000  0.000000000  0.00000000000  0.000000000000000
%f  0.0000000  0.000000000  0.00000000000  0.000000000000000
%i    0    0    0    0      0      0      0      0         0
%i    0    0    0    0      0      0      0      0         0
/* IAC                                ULTRA-RAPID PREDICTION
/* S/V CLOCKS ARE ALIGNED TO GNSS TIME                      
/* G:C1WC2W R:C1PC2P E:C1XC5X C:C2IC6I J:C1CC2S             
/* PCV:IGS14_2163 OL/AL:FES2004  NONE     YN ORB:CoN CLK:CoN
*  2021 07 16 11 30  0.00000000
PC06  -7409.177400  34335.190123  24171.205518    631.571315
PC08 -22424.424058  34285.423392   9184.473377   -905.241619
PC09   2442.565934  40778.607685  11645.851145    369.919743
PC10  -2620.271846  26318.046207 -32592.244794    -18.252520
PC11 -14809.736170 -16829.500302 -16593.401065    460.830199
PC12  -6541.279198 -27138.819370   -438.386392    810.041455
PC13 -12242.635555  34936.280290  20041.674736    338.600228
PC14 -24562.020260 -11674.857634  -6377.338317    802.070737
PC16  -5067.681841  35349.345649  22723.540219   -915.195211
PC19  27152.435275   5589.352448  -3068.635989    911.052118
PC20  19194.658734  15157.108075  13420.392401   -843.614455
PC21    669.182432 -16157.788521 -22728.197394   -935.799848
PC22  19592.632000  -7543.125420 -18365.583854   -948.368997
PC23 -21670.667658  17293.783770   3200.238073   -969.148823
PC24  -7665.145594 -14811.485679  22377.243445   -941.874881
PC25 -21180.120859   2992.186337  17911.605932   -885.049258
PC26   8461.616796 -22567.988103  14089.537247    878.022769
PC27     59.675852  26605.665856  -8465.232374    565.251924
PC28 -11763.761986  13974.620823 -21096.402892    -49.967157
PC29  16927.851718   6173.143458  21297.359528    420.242892
PC30  12445.411458  23461.806865   8588.305510    474.250376
PC32   -633.455020  16171.898726  22746.533035   -924.845285
PC33 -27209.892677  -5471.844834   3025.842840   -943.691427
PC34 -12788.440869 -22981.811319  -9314.226584   -626.868872
PC35  11528.785991 -14000.617340  21190.005232   -184.688667
PC36  21095.262488  -2178.329746 -18105.349656   -733.383547
PC37  -9782.896200  22436.458315 -13365.707152   -864.776075
PC38 -20669.838917  35308.909003   9858.050078    162.093271
PC39  -2088.374121  35870.607089  22199.115103     32.430862
PC40  -7864.132560  21161.285840 -35588.560278    181.057861
PC41 -19856.662340   7449.549328  18186.146076   -960.848560
PC42 -18621.581713 -15388.210833 -13946.285509   -920.153892
PC43 -17026.065821  -6806.324229 -21042.470540   -823.826087
PC44   -797.369552 -26523.046869   8578.052038    292.193567
PC45  21568.928743 -17457.558378  -3033.520952    494.936579
PC46   8624.803598  13882.550554 -22603.740455    176.519181
PE01 -18075.650581  -9808.528854  21295.579164  -1151.249736
PE02  18207.002914   9716.873611 -21218.858789    233.286170
PE03  21478.715258  20351.128876   -356.869556   -453.250570
PE04 -23429.226793  -5711.271626  17177.900918   -814.487398
PE05   6880.444430  23276.001867  16944.777396   -264.778101
PE07  11535.414727 -12610.927712 -24158.386932   -562.313424
PE08  23273.562095   5351.876118 -17474.221618   5969.485308
PE09 -11252.271416  12687.367167  24267.905576   5598.621927
PE11 -13813.309020  23148.958736 -12255.968442   5712.427503
PE12 -16961.244102   3341.043592 -24037.464313   5108.398815
PE13  13867.054419 -22887.174267  12645.680705    419.090065
PE14 -13560.198784  15452.904697 -23909.151886  -1502.136210
PE15  16874.038756  -3434.808345  24074.277623    803.205784
PE18    937.564246 -21116.104300  14259.520177  -1646.348699
PE19 -20344.409027 -21422.490684  -1842.355383    328.209118
PE21   2098.266917 -17366.877088  23881.492839   -676.542225
PE24 -22641.090327  14811.189070 -11994.340304  -1010.819333
PE25  -2349.038573  17396.815772 -23822.222937   -540.169550
PE26   2193.116335 -28676.661708  -7017.567221   1573.046826
PE27  21934.579555 -15241.669712  12768.611977    -76.846973
PE30  28635.011177  -3290.891339  -6758.545673   2779.704500
PE31 -28733.043112   4155.659426   5793.714123   -483.314440
PE33  -9940.585679 -17987.783791 -21303.301545   -467.613957
PE36  -2713.490072  28820.381463   6187.397334   -235.171085
PG01  13980.922302 -21637.898382   5399.293016    626.613785
PG02 -15859.957683   1702.779351 -20599.407117   -619.948258
PG03  18103.767167 -12219.453608 -15123.918501   -222.314476
PG04   7209.768938 -15116.406515 -20593.224591   -202.455779
PG05 -25522.341732   6425.203461   4085.074201    -48.080490
PG06 -10805.423409 -10928.021992 -21595.806105     40.914524
PG07   4567.082017 -24568.199115   8585.821561    203.633278
PG08  14747.987434  -5066.451744  21523.183021    -28.993809
PG09  -3519.752092 -21974.362278 -14543.057923   -355.665131
PG10  13349.011090  12178.408120  19674.930887   -163.117949
PG11 -16365.816646   -362.244489 -20931.379863     16.871464
PG12 -19269.088067  10729.203730 -14952.240120    -69.379365
PG13 -17449.054149  -4153.803953  19501.594333    158.413980
PG14 -13082.695186 -12841.604339  19230.110791     46.085335
PG15 -14474.619844   7153.621542  20756.899074   -135.154532
PG16  26769.220078    784.412981  -1536.959978   -357.984194
PG17 -12762.822987 -23205.132607   2392.576000    474.609018
PG18  -3271.779933  24020.924655  10745.409539    340.580084
PG19 -16825.108699 -19334.954415  -7521.299071     27.015490
PG20 -25124.205883    227.411078  -8098.339203    520.137854
PG21  16237.734370 -15970.254580  13921.898849    131.581572
PG22  23249.929581 -10195.943924  -7267.356872   -562.260926
PG23    450.112939  15150.345680  21785.451083     83.866783
PG24 -14988.980255  19036.738666  10153.787853    176.128941
PG25  -7673.041588  15236.483106 -20551.287093    174.441362
PG26  23221.604009   5444.656522 -12023.382221    111.219736
PG27  19044.856118   6240.469495  17433.501000   -163.709179
PG28 -18088.667395 -11078.498713  16413.519721    536.936372
PG29    776.138428  21348.096213 -15793.912644   -381.037114
PG30  -5173.021914 -19158.268594  17609.208176   -451.392025
PG31  12616.303093   9016.160767 -21614.581830   -128.932786
PG32  16012.578976  21300.620511   -515.987808     13.770150
PJ01 -27663.583705  20940.905456  29020.090830   -416.871374
PJ02 -36124.697312  18935.697596  -6233.900091     -0.822031
PJ03 -18706.052561  28302.716877 -20339.192044     -0.203152
PR01  22404.810482   4771.586687 -11202.560346     82.390541
PR02   8096.230128  -7932.330180 -22813.489520    486.268308
PR03  -9570.031722 -14681.900274 -18467.884276     39.604972
PR04 -21595.892433 -13014.046920  -3817.825448     96.022972
PR05 -21547.609907  -4224.072452  12976.117643     75.427213
PR07  10204.176244  14836.313584  18125.717585    -42.012515
PR08  21602.618885  13036.367237   3874.730826    -59.965093
PR09 -17459.026343  16696.778241  -8285.015705      3.195700
PR12  21905.199505  -9117.281611  -9353.750088    245.756393
PR13  17896.319498 -16487.429833   7633.502093    -57.770838
PR14   2918.408134 -14125.780441  21049.781307     66.539133
PR15 -13198.476390  -3663.296387  21544.413039    102.660809
PR16 -21772.697094  10192.457535   8323.828700    -17.975117
PR17  -2130.527438 -25374.663890  -1852.538995    441.540313
PR18  -8450.771536 -16886.912150 -17116.595551     83.613709
PR19 -10367.196538   -764.401701 -23301.248033   -151.734997
PR20  -6489.350009  19288.201975 -15404.256702    -52.565054
PR21   2590.118974  25165.270246   3132.827296   -224.280753
PR22   8578.463166  16183.164582  17777.056853   -122.944362
PR24   6202.066704 -19900.959240  14724.260468     50.683353
EOF
